$$SOE
2460147.500000000, A.D. 2023-Jul-22 00:00:00.0000, 2.556842662012046E+08, -1.317044531999957E+08, 1.133065383382482E+07,
2460154.500000000, A.D. 2023-Jul-29 00:00:00.0000, 2.603112568369648E+08, -1.186426707217719E+08, 1.134250269765338E+07,
2460161.500000000, A.D. 2023-Aug-05 00:00:00.0000, 2.643998405035117E+08, -1.053355210061055E+08, 1.133088951333933E+07,
2460168.500000000, A.D. 2023-Aug-12 00:00:00.0000, 2.679331002936282E+08, -9.180715169908528E+07, 1.129547554111750E+07,
2460175.500000000, A.D. 2023-Aug-19 00:00:00.0000, 2.708953357113703E+08, -7.808313436664893E+07, 1.123598585773221E+07,
2460182.500000000, A.D. 2023-Aug-26 00:00:00.0000, 2.732722088396147E+08, -6.419039929291055E+07, 1.115221409286621E+07,
2460189.500000000, A.D. 2023-Sep-02 00:00:00.0000, 2.750508878994721E+08, -5.015715305296272E+07, 1.104402685174315E+07,
2460196.500000000, A.D. 2023-Sep-09 00:00:00.0000, 2.762201858621267E+08, -3.601277869446678E+07, 1.091136772151686E+07,
2460203.500000000, A.D. 2023-Sep-16 00:00:00.0000, 2.767706917765953E+08, -2.178771872922138E+07, 1.075426074242349E+07,
2460210.500000000, A.D. 2023-Sep-23 00:00:00.0000, 2.766948926678150E+08, -7.513341170262568E+06, 1.057281323320764E+07,
2460217.500000000, A.D. 2023-Sep-30 00:00:00.0000, 2.759872831400340E+08, 6.778211649002731E+06, 1.036721801625668E+07,
2460224.500000000, A.D. 2023-Oct-07 00:00:00.0000, 2.746444579337328E+08, 2.105418956292592E+07, 1.013775514699285E+07,
2460231.500000000, A.D. 2023-Oct-14 00:00:00.0000, 2.726651862443784E+08, 3.528141124739859E+07, 9.884792722566519E+06,
2460238.500000000, A.D. 2023-Oct-21 00:00:00.0000, 2.700504690324792E+08, 4.942645048783006E+07, 9.608786556156412E+06,
2460245.500000000, A.D. 2023-Oct-28 00:00:00.0000, 2.668035762409945E+08, 6.345583176382051E+07, 9.310279002027385E+06,
2460252.500000000, A.D. 2023-Nov-04 00:00:00.0000, 2.629300614205732E+08, 7.733623154633714E+07, 8.989896972359911E+06,
2460259.500000000, A.D. 2023-Nov-11 00:00:00.0000, 2.584377531471906E+08, 9.103468165334882E+07, 8.648349089114349E+06,
2460266.500000000, A.D. 2023-Nov-18 00:00:00.0000, 2.533367231541719E+08, 1.045187714164641E+08, 8.286421973829344E+06,
2460273.500000000, A.D. 2023-Nov-25 00:00:00.0000, 2.476392314739378E+08, 1.177568454665076E+08, 7.904975718612224E+06,
2460280.500000000, A.D. 2023-Dec-02 00:00:00.0000, 2.413596493643463E+08, 1.307181939802463E+08, 7.504938601955913E+06,
2460287.500000000, A.D. 2023-Dec-09 00:00:00.0000, 2.345143613511732E+08, 1.433732323485264E+08, 7.087301121959269E+06,
2460294.500000000, A.D. 2023-Dec-16 00:00:00.0000, 2.271216483984896E+08, 1.556936675536533E+08, 6.653109420784362E+06,
2460301.500000000, A.D. 2023-Dec-23 00:00:00.0000, 2.192015546895263E+08, 1.676526495461615E+08, 6.203458233656146E+06,
2460308.500000000, A.D. 2023-Dec-30 00:00:00.0000, 2.107757391275262E+08, 1.792249066650469E+08, 5.739483687012255E+06,
2460315.500000000, A.D. 2024-Jan-06 00:00:00.0000, 2.018673124865351E+08, 1.903868612094296E+08, 5.262356039971918E+06,
2460322.500000000, A.D. 2024-Jan-13 00:00:00.0000, 1.925006662811192E+08, 2.011167223009941E+08, 4.773272053915024E+06,
2460329.500000000, A.D. 2024-Jan-20 00:00:00.0000, 1.827012975233786E+08, 2.113945585286852E+08, 4.273447246067986E+06,
2460336.500000000, A.D. 2024-Jan-27 00:00:00.0000, 1.724956302465428E+08, 2.212023509167380E+08, 3.764108377640009E+06,
2460343.500000000, A.D. 2024-Feb-03 00:00:00.0000, 1.619108361762085E+08, 2.305240256110431E+08, 3.246486240829751E+06,
2460350.500000000, A.D. 2024-Feb-10 00:00:00.0000, 1.509746574604394E+08, 2.393454667419123E+08, 2.721808785986289E+06,
2460357.500000000, A.D. 2024-Feb-17 00:00:00.0000, 1.397152339926982E+08, 2.476545105722682E+08, 2.191294653839990E+06,
2460364.500000000, A.D. 2024-Feb-24 00:00:00.0000, 1.281609374743953E+08, 2.554409223385959E+08, 1.656147173334733E+06,
2460371.500000000, A.D. 2024-Mar-02 00:00:00.0000, 1.163402140420378E+08, 2.626963573711609E+08, 1.117548867663443E+06,
2460378.500000000, A.D. 2024-Mar-09 00:00:00.0000, 1.042814370615693E+08, 2.694143082106829E+08, 5.766564841572493E+05,
2460385.500000000, A.D. 2024-Mar-16 00:00:00.0000, 9.201277161451925E+07, 2.755900397982812E+08, 3.459654759055376E+04,
2460392.500000000, A.D. 2024-Mar-23 00:00:00.0000, 7.956205138065900E+07, 2.812205157680321E+08, -5.075384568889141E+05,
2460399.500000000, A.D. 2024-Mar-30 00:00:00.0000, 6.695666617929112E+07, 2.863043177050812E+08, -1.048693073835924E+06,
2460406.500000000, A.D. 2024-Apr-06 00:00:00.0000, 5.422346062676527E+07, 2.908415558246146E+08, -1.587851352082193E+06,
2460413.500000000, A.D. 2024-Apr-13 00:00:00.0000, 4.138864741936774E+07, 2.948337736672796E+08, -2.124039083242163E+06,
2460420.500000000, A.D. 2024-Apr-20 00:00:00.0000, 2.847773404841235E+07, 2.982838511094022E+08, -2.656325529619634E+06,
2460427.500000000, A.D. 2024-Apr-27 00:00:00.0000, 1.551546099725108E+07, 3.011959065863841E+08, -3.183824583091915E+06,
2460434.500000000, A.D. 2024-May-04 00:00:00.0000, 2.525750925714549E+06, 3.035751991327424E+08, -3.705695458287239E+06,
2460441.500000000, A.D. 2024-May-11 00:00:00.0000, -1.046833161173278E+07, 3.054280312819126E+08, -4.221142990458295E+06,
2460448.500000000, A.D. 2024-May-18 00:00:00.0000, -2.344461060354051E+07, 3.067616538271251E+08, -4.729417585113093E+06,
2460455.500000000, A.D. 2024-May-25 00:00:00.0000, -3.638181997252562E+07, 3.075841732549256E+08, -5.229814863552466E+06,
2460462.500000000, A.D. 2024-Jun-01 00:00:00.0000, -4.925961671063100E+07, 3.079044624598940E+08, -5.721675054992884E+06,
2460469.500000000, A.D. 2024-Jun-08 00:00:00.0000, -6.205858636410923E+07, 3.077320752414580E+08, -6.204382198829293E+06,
2460476.500000000, A.D. 2024-Jun-15 00:00:00.0000, -7.476024130890001E+07, 3.070771655218415E+08, -6.677363186346978E+06,
2460483.500000000, A.D. 2024-Jun-22 00:00:00.0000, -8.734701363030778E+07, 3.059504127382215E+08, -7.140086488868952E+06,
2460490.500000000, A.D. 2024-Jun-29 00:00:00.0000, -9.980224549050450E+07, 3.043629517532728E+08, -7.592060558351979E+06,
2460497.500000000, A.D. 2024-Jul-06 00:00:00.0000, -1.121101750620881E+08, 3.023263048655336E+08, -8.032832369961649E+06,
2460504.500000000, A.D. 2024-Jul-13 00:00:00.0000, -1.242559167756976E+08, 2.998523187371864E+08, -8.461986077326551E+06,
2460511.500000000, A.D. 2024-Jul-20 00:00:00.0000, -1.362254385059059E+08, 2.969531073441572E+08, -8.879141528219879E+06,
2460518.500000000, A.D. 2024-Jul-27 00:00:00.0000, -1.480055369233738E+08, 2.936409998923492E+08, -9.283952680407509E+06,
2460525.500000000, A.D. 2024-Aug-03 00:00:00.0000, -1.595838112516388E+08, 2.899284931843833E+08, -9.676105992322221E+06,
2460532.500000000, A.D. 2024-Aug-10 00:00:00.0000, -1.709486357159198E+08, 2.858282082553126E+08, -1.005531882037251E+07,
2460539.500000000, A.D. 2024-Aug-17 00:00:00.0000, -1.820891310373752E+08, 2.813528510933361E+08, -1.042133783869995E+07,
2460546.500000000, A.D. 2024-Aug-24 00:00:00.0000, -1.929951352980291E+08, 2.765151771990930E+08, -1.077393749647287E+07,
2460553.500000000, A.D. 2024-Aug-31 00:00:00.0000, -2.036571743688902E+08, 2.713279596878486E+08, -1.111291853703915E+07,
2460560.500000000, A.D. 2024-Sep-07 00:00:00.0000, -2.140664318016818E+08, 2.658039608223753E+08, -1.143810660914159E+07,
2460567.500000000, A.D. 2024-Sep-14 00:00:00.0000, -2.242147183267447E+08, 2.599559077338527E+08, -1.174935090225877E+07,
2460574.500000000, A.D. 2024-Sep-21 00:00:00.0000, -2.340944431804407E+08, 2.537964725109897E+08, -1.204652259124023E+07,
2460581.500000000, A.D. 2024-Sep-28 00:00:00.0000, -2.436985879075908E+08, 2.473382532060186E+08, -1.232951331327762E+07,
2460588.500000000, A.D. 2024-Oct-05 00:00:00.0000, -2.530206790913524E+08, 2.405937555335793E+08, -1.259823401463559E+07,
2460595.500000000, A.D. 2024-Oct-12 00:00:00.0000, -2.620547604780781E+08, 2.335753780240205E+08, -1.285261389114207E+07,
2460602.500000000, A.D. 2024-Oct-19 00:00:00.0000, -2.707953663360894E+08, 2.262954001630787E+08, -1.309259928577308E+07,
2460609.500000000, A.D. 2024-Oct-26 00:00:00.0000, -2.792374961420929E+08, 2.187659725292840E+08, -1.331815260621877E+07,
2460616.500000000, A.D. 2024-Nov-02 00:00:00.0000, -2.873765903814062E+08, 2.109991086008743E+08, -1.352925129733909E+07,
2460623.500000000, A.D. 2024-Nov-09 00:00:00.0000, -2.952085073956944E+08, 2.030066780844648E+08, -1.372588687454773E+07,
2460630.500000000, A.D. 2024-Nov-16 00:00:00.0000, -3.027295012706436E+08, 1.948004016094025E+08, -1.390806401912935E+07,
2460637.500000000, A.D. 2024-Nov-23 00:00:00.0000, -3.099362007244123E+08, 1.863918465931556E+08, -1.407579974228109E+07,
2460644.500000000, A.D. 2024-Nov-30 00:00:00.0000, -3.168255887873086E+08, 1.777924241013043E+08, -1.422912263863537E+07,
2460651.500000000, A.D. 2024-Dec-07 00:00:00.0000, -3.233949828444048E+08, 1.690133869991390E+08, -1.436807223129785E+07,
2460658.500000000, A.D. 2024-Dec-14 00:00:00.0000, -3.296420157156202E+08, 1.600658305046526E+08, -1.449269824310236E+07,
2460665.500000000, A.D. 2024-Dec-21 00:00:00.0000, -3.355646200759544E+08, 1.509606937987298E+08, -1.460305968115149E+07,
2460672.500000000, A.D. 2024-Dec-28 00:00:00.0000, -3.411610142224449E+08, 1.417087596341770E+08, -1.469922415632872E+07,
2460679.500000000, A.D. 2025-Jan-04 00:00:00.0000, -3.464296865592061E+08, 1.323206542337723E+08, -1.478126747863224E+07,
2460686.500000000, A.D. 2025-Jan-11 00:00:00.0000, -3.513693805919005E+08, 1.228068490538291E+08, -1.484927322276368E+07,
2460693.500000000, A.D. 2025-Jan-18 00:00:00.0000, -3.559790813238323E+08, 1.131776634225745E+08, -1.490333225344932E+07,
2460700.500000000, A.D. 2025-Jan-25 00:00:00.0000, -3.602580027821155E+08, 1.034432675165363E+08, -1.494354226985428E+07,
2460707.500000000, A.D. 2025-Feb-01 00:00:00.0000, -3.642055764534897E+08, 9.361368558728111E+07, -1.497000738673164E+07,
2460714.500000000, A.D. 2025-Feb-08 00:00:00.0000, -3.678214405407906E+08, 8.369879940539546E+07, -1.498283775396955E+07,
$$EOE